HST                     
1 20580U 90037B   26068.15977042  .00009063  00000+0  30023-3 0  9999
2 20580  28.4717  43.6133 0001837 120.9992 239.0785 15.29473555773239
STARLINK-32815          
1 62956U 25029J   26068.71438616  .00031302  00000+0  10642-2 0  9997
2 62956  53.1599 230.0527 0000950  79.7685 280.3423 15.30209117 61364
